NORAD_CAT_ID,OBJECT_NAME,OBJECT_TYPE,EPOCH,MEAN_MOTION,ECCENTRICITY,INCLINATION,RA_OF_ASC_NODE,ARG_OF_PERICENTER,MEAN_ANOMALY,BSTAR,MEAN_MOTION_DOT,MEAN_MOTION_DDOT,TLE_LINE0,TLE_LINE1,TLE_LINE2,SEMIMAJOR_AXIS,PERIOD,APOGEE,PERIGEE,DECAYED
53641.0,STARLINK-4588,PAYLOAD,2024-03-17 14:00:01,15.08839298,0.0001425,53.2159,225.6431,95.7496,264.3659,8.5429e-05,1.072e-05,0.0,0 STARLINK-4588,1 53641U 22104BF  24077.58334777  .00001072  00000-0  85429-4 0  9994,2 53641  53.2159 225.6431 0001425  95.7496 264.3659 15.08839298 87217,6917.883,95.438,540.733,538.762,0.0
53641.0,STARLINK-4588,PAYLOAD,2024-03-17 18:46:10,15.08844864,0.0001424,53.217,224.751,96.0129,264.1025,0.00015773,2.224e-05,0.0,0 STARLINK-4588,1 53641U 22104BF  24077.78206511  .00002224  00000-0  15773-3 0  9994,2 53641  53.2170 224.7510 0001424  96.0129 264.1025 15.08844864 86224,6917.866,95.437,540.716,538.745,0.0
53641.0,STARLINK-4588,PAYLOAD,2024-03-18 18:36:57,15.08838522,0.0001654,53.216,220.2883,90.5065,269.6116,3.6194e-05,2.88e-06,0.0,0 STARLINK-4588,1 53641U 22104BF  24078.77566971  .00000288  00000-0  36194-4 0  9992,2 53641  53.2160 220.2883 0001654  90.5065 269.6116 15.08838522 86371,6917.885,95.438,540.894,538.606,0.0
53641.0,STARLINK-4588,PAYLOAD,2024-03-19 08:55:26,15.08842445,0.0001529,53.2172,217.6145,75.3255,284.7906,6.4975e-05,7.46e-06,0.0,0 STARLINK-4588,1 53641U 22104BF  24079.37183245  .00000746  00000-0  64975-4 0  9995,2 53641  53.2172 217.6145 0001529  75.3255 284.7906 15.08842445 87485,6917.873,95.437,540.796,538.68,0.0
53641.0,STARLINK-4588,PAYLOAD,2024-03-19 16:52:22,15.08840117,0.0001209,53.2173,216.1246,84.7312,275.3818,-2.9258e-05,-7.53e-06,0.0,0 STARLINK-4588,1 53641U 22104BF  24079.70303507 -.00000753  00000-0 -29258-4 0  9992,2 53641  53.2173 216.1246 0001209  84.7312 275.3818 15.08840117 86510,6917.88,95.438,540.581,538.909,0.0
53641.0,STARLINK-4588,PAYLOAD,2024-03-20 13:32:23,15.08833039,0.0001277,53.2176,212.2596,75.3765,284.7369,9.4526e-05,1.217e-05,0.0,0 STARLINK-4588,1 53641U 22104BF  24080.56415933  .00001217  00000-0  94526-4 0  9999,2 53641  53.2176 212.2596 0001277  75.3765 284.7369 15.08833039 87668,6917.902,95.438,540.65,538.883,0.0
53641.0,STARLINK-4588,PAYLOAD,2024-03-20 15:07:46,15.08835348,0.0001582,53.2178,211.9613,63.6271,296.4883,0.00012231,1.659e-05,0.0,0 STARLINK-4588,1 53641U 22104BF  24080.63039878  .00001659  00000-0  12231-3 0  9999,2 53641  53.2178 211.9613 0001582  63.6271 296.4883 15.08835348 87674,6917.895,95.438,540.854,538.665,0.0
53641.0,STARLINK-4588,PAYLOAD,2024-03-21 02:15:27,15.08861559,0.0001238,53.2174,209.8829,75.1801,284.9328,-5.3166e-05,-1.134e-05,0.0,0 STARLINK-4588,1 53641U 22104BF  24081.09406394 -.00001134  00000-0 -53166-4 0  9994,2 53641  53.2174 209.8829 0001238  75.1801 284.9328 15.08861559 86724,6917.814,95.436,540.536,538.823,0.0
53641.0,STARLINK-4588,PAYLOAD,2024-03-21 13:23:10,15.0884863,0.0001553,53.2167,207.8027,84.624,275.4929,0.00040646,6.188e-05,0.0,0 STARLINK-4588,1 53641U 22104BF  24081.55775486  .00006188  00000-0  40646-3 0  9996,2 53641  53.2167 207.8027 0001553  84.6240 275.4929 15.08848630 86790,6917.854,95.437,540.793,538.645,0.0
53641.0,STARLINK-4588,PAYLOAD,2024-03-21 14:58:33,15.08852605,0.0001476,53.2169,207.5049,83.0036,277.1124,0.00044195,6.755e-05,0.0,0 STARLINK-4588,1 53641U 22104BF  24081.62399321  .00006755  00000-0  44195-3 0  9997,2 53641  53.2169 207.5049 0001476  83.0036 277.1124 15.08852605 87821,6917.842,95.437,540.728,538.686,0.0
53641.0,STARLINK-4588,PAYLOAD,2024-03-22 13:13:56,15.08857175,0.000137,53.2164,203.3389,81.7323,278.3825,0.00016466,2.335e-05,0.0,0 STARLINK-4588,1 53641U 22104BF  24082.55134459  .00002335  00000-0  16466-3 0  9999,2 53641  53.2164 203.3389 0001370  81.7323 278.3825 15.08857175 87967,6917.828,95.436,540.641,538.745,0.0
53641.0,STARLINK-4588,PAYLOAD,2024-03-23 13:04:43,15.0883843,0.0001604,53.2176,198.8809,103.8808,256.2362,-4.6934e-05,-1.035e-05,0.0,0 STARLINK-4588,1 53641U 22104BF  24083.54495268 -.00001035  00000-0 -46934-4 0  9999,2 53641  53.2176 198.8809 0001604 103.8808 256.2362 15.08838430 87097,6917.885,95.438,540.86,538.641,0.0
53641.0,STARLINK-4588,PAYLOAD,2024-03-23 17:50:52,15.08845982,0.0001558,53.2166,197.9854,111.9161,248.1996,-1.759e-05,-5.68e-06,0.0,0 STARLINK-4588,1 53641U 22104BF  24083.74366856 -.00000568  00000-0 -17590-4 0  9997,2 53641  53.2166 197.9854 0001558 111.9161 248.1996 15.08845982 88146,6917.862,95.437,540.805,538.649,0.0
53641.0,STARLINK-4588,PAYLOAD,2024-03-24 12:55:30,15.08853221,0.0001496,53.2181,194.4179,97.6513,262.4649,0.00030358,4.549e-05,0.0,0 STARLINK-4588,1 53641U 22104BF  24084.53854465  .00004549  00000-0  30358-3 0  9990,2 53641  53.2181 194.4179 0001496  97.6513 262.4649 15.08853221 88269,6917.84,95.437,540.74,538.67,0.0
53641.0,STARLINK-4588,PAYLOAD,2024-03-24 17:41:38,15.08873419,0.0001621,53.2161,193.523,116.5654,243.5505,0.00068815,0.00010691,0.0,0 STARLINK-4588,1 53641U 22104BF  24084.73725538  .00010691  00000-0  68815-3 0  9994,2 53641  53.2161 193.5230 0001621 116.5654 243.5505 15.08873419 87274,6917.778,95.435,540.765,538.522,0.0
53641.0,STARLINK-4588,PAYLOAD,2024-03-25 00:03:12,15.08837565,0.0001278,53.2166,192.3356,108.1116,252.0015,0.00012809,1.751e-05,0.0,0 STARLINK-4588,1 53641U 22104BF  24085.00223202  .00001751  00000-0  12809-3 0  9995,2 53641  53.2166 192.3356 0001278 108.1116 252.0015 15.08837565 87311,6917.888,95.438,540.637,538.869,0.0
53641.0,STARLINK-4588,PAYLOAD,2024-03-25 12:46:18,15.08830826,0.0001925,53.2165,189.9565,93.1962,266.9251,-7.4092e-05,-1.467e-05,0.0,0 STARLINK-4588,1 53641U 22104BF  24085.53215757 -.00001467  00000-0 -74092-4 0  9998,2 53641  53.2165 189.9565 0001925  93.1962 266.9251 15.08830826 87392,6917.908,95.438,541.105,538.442,0.0
53641.0,STARLINK-4588,PAYLOAD,2024-03-25 17:32:27,15.08846071,0.0001815,53.2171,189.0654,96.071,264.0489,0.00049101,7.536e-05,0.0,0 STARLINK-4588,1 53641U 22104BF  24085.73087443  .00007536  00000-0  49101-3 0  9992,2 53641  53.2171 189.0654 0001815  96.0710 264.0489 15.08846071 87425,6917.862,95.437,540.982,538.471,0.0
53641.0,STARLINK-4588,PAYLOAD,2024-03-26 12:37:06,15.088152,0.0001827,53.2175,185.4902,96.8684,263.2516,0.00014857,2.076e-05,0.0,0 STARLINK-4588,1 53641U 22104BF  24086.52577373  .00002076  00000-0  14857-3 0  9990,2 53641  53.2175 185.4902 0001827  96.8684 263.2516 15.08815200 87541,6917.956,95.439,541.085,538.557,0.0
53641.0,STARLINK-4588,PAYLOAD,2024-03-26 14:12:30,15.08814827,0.0001923,53.217,185.2003,79.7035,280.4173,0.00023399,3.435e-05,0.0,0 STARLINK-4588,1 53641U 22104BF  24086.59201723  .00003435  00000-0  23399-3 0  9991,2 53641  53.2170 185.2003 0001923  79.7035 280.4173 15.08814827 88571,6917.957,95.439,541.153,538.492,0.0
53641.0,STARLINK-4588,PAYLOAD,2024-03-26 15:47:53,15.08822139,0.0001756,53.2166,184.8986,95.073,265.0463,0.00017097,2.433e-05,0.0,0 STARLINK-4588,1 53641U 22104BF  24086.65825497  .00002433  00000-0  17097-3 0  9993,2 53641  53.2166 184.8986 0001756  95.0730 265.0463 15.08822139 88585,6917.935,95.439,541.015,538.585,0.0
53641.0,STARLINK-4588,PAYLOAD,2024-03-26 23:44:49,15.08827597,0.0001785,53.2151,183.4189,79.5786,280.5407,0.00064122,9.928e-05,0.0,0 STARLINK-4588,1 53641U 22104BF  24086.98945747  .00009928  00000-0  64122-3 0  9997,2 53641  53.2151 183.4189 0001785  79.5786 280.5407 15.08827597 87615,6917.918,95.438,541.018,538.548,0.0
53641.0,STARLINK-4588,PAYLOAD,2024-03-27 12:27:53,15.08857343,0.0001758,53.2148,181.0372,87.5727,272.5466,0.00079844,0.00012448,0.0,0 STARLINK-4588,1 53641U 22104BF  24087.51936806  .00012448  00000-0  79844-3 0  9991,2 53641  53.2148 181.0372 0001758  87.5727 272.5466 15.08857343 87699,6917.827,95.436,540.909,538.476,0.0
53641.0,STARLINK-4588,PAYLOAD,2024-03-27 23:35:35,15.08859118,0.0001918,53.2163,178.9566,84.5638,275.5573,0.00049706,7.636e-05,0.0,0 STARLINK-4588,1 53641U 22104BF  24087.98304464  .00007636  00000-0  49706-3 0  9998,2 53641  53.2163 178.9566 0001918  84.5638 275.5573 15.08859118 87764,6917.822,95.436,541.014,538.36,0.0
53641.0,STARLINK-4588,PAYLOAD,2024-03-28 12:18:39,15.08854715,0.0001763,53.2155,176.5782,89.551,270.5684,0.00012108,1.64e-05,0.0,0 STARLINK-4588,1 53641U 22104BF  24088.51296088  .00001640  00000-0  12108-3 0  9995,2 53641  53.2155 176.5782 0001763  89.5510 270.5684 15.08854715 87846,6917.835,95.437,540.92,538.481,0.0
53641.0,STARLINK-4588,PAYLOAD,2024-03-29 12:09:26,15.08848081,0.0001782,53.2153,172.1186,89.7025,270.4172,9.194e-05,1.176e-05,0.0,0 STARLINK-4588,1 53641U 22104BF  24089.50655954  .00001176  00000-0  91940-4 0  9992,2 53641  53.2153 172.1186 0001782  89.7025 270.4172 15.08848081 87994,6917.856,95.437,540.953,538.488,0.0
53641.0,STARLINK-4588,PAYLOAD,2024-03-29 15:20:12,15.0885421,0.0001788,53.2152,171.5233,89.9832,270.1366,0.00014298,1.989e-05,0.0,0 STARLINK-4588,1 53641U 22104BF  24089.63903751  .00001989  00000-0  14298-3 0  9999,2 53641  53.2152 171.5233 0001788  89.9832 270.1366 15.08854210 89033,6917.837,95.437,540.939,538.465,0.0
53641.0,STARLINK-4588,PAYLOAD,2024-03-30 05:38:41,15.08839393,0.0001888,53.2159,168.8429,98.1266,261.994,0.00015841,2.234e-05,0.0,0 STARLINK-4588,1 53641U 22104BF  24090.23520480  .00002234  00000-0  15841-3 0  9990,2 53641  53.2159 168.8429 0001888  98.1266 261.9940 15.08839393 88108,6917.882,95.438,541.053,538.441,0.0
53641.0,STARLINK-4588,PAYLOAD,2024-03-30 12:00:14,15.08844126,0.0001608,53.2165,167.6583,79.2057,280.9116,0.00021951,3.208e-05,0.0,0 STARLINK-4588,1 53641U 22104BF  24090.50016294  .00003208  00000-0  21951-3 0  9994,2 53641  53.2165 167.6583 0001608  79.2057 280.9116 15.08844126 89164,6917.868,95.437,540.845,538.62,0.0
53641.0,STARLINK-4588,PAYLOAD,2024-03-30 21:32:32,15.088407,0.0001672,53.2166,165.8747,85.7465,274.3718,0.0001209,1.637e-05,0.0,0 STARLINK-4588,1 53641U 22104BF  24090.89760414  .00001637  00000-0  12090-3 0  9994,2 53641  53.2166 165.8747 0001672  85.7465 274.3718 15.08840700 89229,6917.878,95.438,540.9,538.587,0.0
